[{"OBJECT_NAME":"DUPLEX","OBJECT_ID":"1998-067XS","EPOCH":"2026-03-20T05:50:42.444384","MEAN_MOTION":15.56853092,"ECCENTRICITY":0.0002978,"INCLINATION":51.6306,"RA_OF_ASC_NODE":16.6351,"ARG_OF_PERICENTER":156.4039,"MEAN_ANOMALY":203.709,"EPHEMERIS_TYPE":0,"CLASSIFICATION_TYPE":"U","NORAD_CAT_ID":66906,"ELEMENT_SET_NO":999,"REV_AT_EPOCH":1677,"BSTAR":0.00030375,"MEAN_MOTION_DOT":0.000218,"MEAN_MOTION_DDOT":0},{"OBJECT_NAME":"ISS OBJECT XT","OBJECT_ID":"1998-067XT","EPOCH":"2026-03-20T12:33:34.017696","MEAN_MOTION":15.72768036,"ECCENTRICITY":0.00052238,"INCLINATION":51.6258,"RA_OF_ASC_NODE":10.2274,"ARG_OF_PERICENTER":150.1907,"MEAN_ANOMALY":209.939,"EPHEMERIS_TYPE":0,"CLASSIFICATION_TYPE":"U","NORAD_CAT_ID":66907,"ELEMENT_SET_NO":999,"REV_AT_EPOCH":1688,"BSTAR":0.0012285382,"MEAN_MOTION_DOT":0.00172561,"MEAN_MOTION_DDOT":0},{"OBJECT_NAME":"ISS OBJECT XU","OBJECT_ID":"1998-067XU","EPOCH":"2026-03-20T23:10:00.359616","MEAN_MOTION":15.73054594,"ECCENTRICITY":0.00054616,"INCLINATION":51.6252,"RA_OF_ASC_NODE":7.9239,"ARG_OF_PERICENTER":152.7279,"MEAN_ANOMALY":207.4007,"EPHEMERIS_TYPE":0,"CLASSIFICATION_TYPE":"U","NORAD_CAT_ID":66908,"ELEMENT_SET_NO":999,"REV_AT_EPOCH":1695,"BSTAR":0.0012765529,"MEAN_MOTION_DOT":0.00181752,"MEAN_MOTION_DDOT":0},{"OBJECT_NAME":"SILVERSAT","OBJECT_ID":"1998-067XV","EPOCH":"2026-03-20T04:21:22.683456","MEAN_MOTION":15.76718316,"ECCENTRICITY":0.00058723,"INCLINATION":51.6236,"RA_OF_ASC_NODE":10.9348,"ARG_OF_PERICENTER":151.9613,"MEAN_ANOMALY":208.1704,"EPHEMERIS_TYPE":0,"CLASSIFICATION_TYPE":"U","NORAD_CAT_ID":66909,"ELEMENT_SET_NO":999,"REV_AT_EPOCH":1684,"BSTAR":0.0010695302,"MEAN_MOTION_DOT":0.00178475,"MEAN_MOTION_DDOT":0},{"OBJECT_NAME":"ISS OBJECT XW","OBJECT_ID":"1998-067XW","EPOCH":"2026-03-20T23:15:22.296384","MEAN_MOTION":15.71878803,"ECCENTRICITY":0.00058123,"INCLINATION":51.6253,"RA_OF_ASC_NODE":7.945,"ARG_OF_PERICENTER":154.0747,"MEAN_ANOMALY":206.0543,"EPHEMERIS_TYPE":0,"CLASSIFICATION_TYPE":"U","NORAD_CAT_ID":66910,"ELEMENT_SET_NO":999,"REV_AT_EPOCH":1695,"BSTAR":0.0011761585,"MEAN_MOTION_DOT":0.00158808,"MEAN_MOTION_DDOT":0},{"OBJECT_NAME":"ISS OBJECT XX","OBJECT_ID":"1998-067XX","EPOCH":"2026-03-20T18:50:21.995520","MEAN_MOTION":15.8158995,"ECCENTRICITY":0.00076145,"INCLINATION":51.6214,"RA_OF_ASC_NODE":6.6859,"ARG_OF_PERICENTER":159.8268,"MEAN_ANOMALY":200.3037,"EPHEMERIS_TYPE":0,"CLASSIFICATION_TYPE":"U","NORAD_CAT_ID":66911,"ELEMENT_SET_NO":999,"REV_AT_EPOCH":1694,"BSTAR":0.0015488969,"MEAN_MOTION_DOT":0.00328635,"MEAN_MOTION_DDOT":0},{"OBJECT_NAME":"ISS OBJECT XY","OBJECT_ID":"1998-067XY","EPOCH":"2026-03-20T04:24:03.870432","MEAN_MOTION":15.65652756,"ECCENTRICITY":0.00038345,"INCLINATION":51.6283,"RA_OF_ASC_NODE":13.9735,"ARG_OF_PERICENTER":151.9435,"MEAN_ANOMALY":208.1768,"EPHEMERIS_TYPE":0,"CLASSIFICATION_TYPE":"U","NORAD_CAT_ID":66912,"ELEMENT_SET_NO":999,"REV_AT_EPOCH":1679,"BSTAR":0.00068564431,"MEAN_MOTION_DOT":0.0007058,"MEAN_MOTION_DDOT":0},{"OBJECT_NAME":"KNACKSAT-2","OBJECT_ID":"1998-067XZ","EPOCH":"2026-03-20T22:18:17.102304","MEAN_MOTION":15.52692133,"ECCENTRICITY":0.00097311,"INCLINATION":51.6324,"RA_OF_ASC_NODE":15.9635,"ARG_OF_PERICENTER":225.7971,"MEAN_ANOMALY":134.222,"EPHEMERIS_TYPE":0,"CLASSIFICATION_TYPE":"U","NORAD_CAT_ID":67683,"ELEMENT_SET_NO":999,"REV_AT_EPOCH":653,"BSTAR":0.00058559191,"MEAN_MOTION_DOT":0.00036557,"MEAN_MOTION_DDOT":0},{"OBJECT_NAME":"CORAL","OBJECT_ID":"1998-067YA","EPOCH":"2026-03-20T05:43:23.005344","MEAN_MOTION":15.55968604,"ECCENTRICITY":0.0012105,"INCLINATION":51.6315,"RA_OF_ASC_NODE":18.8493,"ARG_OF_PERICENTER":212.7395,"MEAN_ANOMALY":147.2847,"EPHEMERIS_TYPE":0,"CLASSIFICATION_TYPE":"U","NORAD_CAT_ID":67684,"ELEMENT_SET_NO":999,"REV_AT_EPOCH":643,"BSTAR":0.0008299,"MEAN_MOTION_DOT":0.000589,"MEAN_MOTION_DDOT":0},{"OBJECT_NAME":"GXIBA-1","OBJECT_ID":"1998-067YB","EPOCH":"2026-03-20T05:08:22.437312","MEAN_MOTION":15.5309958,"ECCENTRICITY":0.0011616,"INCLINATION":51.6332,"RA_OF_ASC_NODE":19.4363,"ARG_OF_PERICENTER":220.6848,"MEAN_ANOMALY":139.3275,"EPHEMERIS_TYPE":0,"CLASSIFICATION_TYPE":"U","NORAD_CAT_ID":67685,"ELEMENT_SET_NO":999,"REV_AT_EPOCH":642,"BSTAR":0.00048661,"MEAN_MOTION_DOT":0.00030754,"MEAN_MOTION_DDOT":0},{"OBJECT_NAME":"UITMSAT-2","OBJECT_ID":"1998-067YC","EPOCH":"2026-03-20T04:54:06.523488","MEAN_MOTION":15.53839493,"ECCENTRICITY":0.00085039,"INCLINATION":51.6331,"RA_OF_ASC_NODE":19.3725,"ARG_OF_PERICENTER":189.8163,"MEAN_ANOMALY":170.2663,"EPHEMERIS_TYPE":0,"CLASSIFICATION_TYPE":"U","NORAD_CAT_ID":67686,"ELEMENT_SET_NO":999,"REV_AT_EPOCH":642,"BSTAR":0.00056833207,"MEAN_MOTION_DOT":0.00036971,"MEAN_MOTION_DDOT":0},{"OBJECT_NAME":"HMU-SAT2","OBJECT_ID":"1998-067YD","EPOCH":"2026-03-20T20:40:11.145504","MEAN_MOTION":15.52905737,"ECCENTRICITY":0.00082641,"INCLINATION":51.6328,"RA_OF_ASC_NODE":16.2604,"ARG_OF_PERICENTER":195.4883,"MEAN_ANOMALY":164.5856,"EPHEMERIS_TYPE":0,"CLASSIFICATION_TYPE":"U","NORAD_CAT_ID":67687,"ELEMENT_SET_NO":999,"REV_AT_EPOCH":644,"BSTAR":0.00062479702,"MEAN_MOTION_DOT":0.00039334,"MEAN_MOTION_DDOT":0},{"OBJECT_NAME":"LEOPARD","OBJECT_ID":"1998-067YE","EPOCH":"2026-03-20T05:00:37.027296","MEAN_MOTION":15.5350034,"ECCENTRICITY":0.00083515,"INCLINATION":51.6333,"RA_OF_ASC_NODE":19.4024,"ARG_OF_PERICENTER":190.6023,"MEAN_ANOMALY":169.4793,"EPHEMERIS_TYPE":0,"CLASSIFICATION_TYPE":"U","NORAD_CAT_ID":67688,"ELEMENT_SET_NO":999,"REV_AT_EPOCH":634,"BSTAR":0.00052397408,"MEAN_MOTION_DOT":0.0003361,"MEAN_MOTION_DDOT":0},{"OBJECT_NAME":"CREW DRAGON 12","OBJECT_ID":"2026-031A","EPOCH":"2026-03-20T20:55:56.727840","MEAN_MOTION":15.48402839,"ECCENTRICITY":0.00063663,"INCLINATION":51.6346,"RA_OF_ASC_NODE":17.0785,"ARG_OF_PERICENTER":213.2716,"MEAN_ANOMALY":146.7873,"EPHEMERIS_TYPE":0,"CLASSIFICATION_TYPE":"U","NORAD_CAT_ID":67796,"ELEMENT_SET_NO":999,"REV_AT_EPOCH":55798,"BSTAR":0.00018572808,"MEAN_MOTION_DOT":9.59e-5,"MEAN_MOTION_DDOT":0}]
